CODIGO SOPORTE;TIPO SOPORTE;CODIGO J.M.;DISTRITO;VIAL;DIRECCION;NUMERO;COORD X UTM ETRS89;COORD Y UTM ETRS89;FECHA PUESTA EN SERVICIO;LONGITUD;LATITUD;NOMBRE
010158MPP;MUPI PILAS;1;CENTRO;CALLE;BARQUILLO;17;440982.73;4474804.30;19/07/2018;-3.6956915;40.4217763;CALLE BARQUILLO,17
010159MPP;MUPI PILAS;1;CENTRO;CALLE;CONDE DE ROMANONES;2;440218.19;4473941.95;07/02/2017;-3.7046221;40.4139533;CALLE CONDE DE ROMANONES,2
010162MPP;MUPI PILAS;1;CENTRO;CALLE;ALCALÁ;48;441103.08;4474499.78;30/09/2016;-3.6942447;40.4190415;CALLE ALCALÁ,48
010163MPP;MUPI PILAS;1;CENTRO;CALLE;ATOCHA;76;440834.84;4473665.63;08/11/2016;-3.6973288;40.4115081;CALLE ATOCHA,76
010165MPP;MUPI PILAS;1;CENTRO;CALLE;ATOCHA;121;441106.67;4473500.32;15/12/2016;-3.6941099;40.4100382;CALLE ATOCHA,121
010166MPP;MUPI PILAS;1;CENTRO;PLAZA;EMPERADOR CARLOS V;11;441248.99;4473390.37;24/02/2020;-3.6924224;40.4090577;PLAZA EMPERADOR CARLOS V, 11
010168MPP;MUPI PILAS;1;CENTRO;CALLE;BAILÉN;14;439435.37;4473837.19;06/10/2016;-3.7138382;40.4129529;CALLE BAILÉN,14
010174MPP;MUPI PILAS;1;CENTRO;CALLE;FUENCARRAL;94;440477.68;4475435.17;27/09/2016;-3.7017036;40.4274235;CALLE FUENCARRAL,94
010176MPP;MUPI PILAS;1;CENTRO;CALLE;FUENCARRAL;81;440530.98;4475233.90;24/02/2020;-3.7010565;40.4256142;CALLE FUENCARRAL, 81
010177MPP;MUPI PILAS;1;CENTRO;CALLE;GÉNOVA;18;441142.60;4475339.08;13/10/2016;-3.6938566;40.4266052;CALLE GÉNOVA,18
010184MPP;MUPI PILAS;1;CENTRO;CALLE;PRINCESA;32;439418.89;4475503.03;03/01/2017;-3.7141911;40.4279584;CALLE PRINCESA,32
010186MPP;MUPI PILAS;1;CENTRO;AVENIDA;GRAN VÍA DE SAN FRANCISCO;2;439608.15;4473195.01;14/06/2017;-3.711741;40.4071804;AVENIDA GRAN VÍA DE SAN FRANCISCO,2
010188MPP;MUPI PILAS;1;CENTRO;CALLE;SAN BERNARDO;24;439989.50;4474970.37;04/10/2016;-3.7074144;40.4232013;CALLE SAN BERNARDO,24
010191MPP;MUPI PILAS;1;CENTRO;CALLE;TINTOREROS;1;439908.95;4473909.31;05/10/2016;-3.7082637;40.4136369;CALLE TINTOREROS,1
010193MPP;MUPI PILAS;1;CENTRO;CALLE;TOLEDO;34;439966.10;4473823.09;05/10/2016;-3.707582;40.4128644;CALLE TOLEDO,34
010194MPP;MUPI PILAS;1;CENTRO;PLAZA;LAS CORTES;S/N;441029.06;4474192.87;06/10/2016;-3.695050;40.415576;PLAZA LAS CORTES,S/N
010200MPP;MUPI PILAS;1;CENTRO;CALLE;GRAN VÍA;46;440108.34;4474661.92;26/09/2016;-3.7059846;40.4204312;CALLE GRAN VÍA,46
010206MPP;MUPI PILAS;1;CENTRO;PLAZA;SANTA BARBARA;4;440946.93;4475451.98;07/11/2016;-3.6961736;40.4276084;PLAZA SANTA BARBARA,4
010208MPP;MUPI PILAS;1;CENTRO;PLAZA;CARMEN;2;440296.55;4474555.01;05/03/2025;-3.703717;40.418786;PLAZA CARMEN ESQUINA CALLE SALUD
010213MPP;MUPI PILAS;1;CENTRO;CALLE;ALBERTO AGUILERA;1;440086.63;4475672.02;25/01/2018;-3.7063356;40.4295291;CALLE ALBERTO AGUILERA,1
010224MPP;MUPI PILAS;1;CENTRO;CALLE;RONDA DE VALENCIA;2;440646.92;4473057.12;26/10/2016;-3.6994867;40.406013;CALLE RONDA DE VALENCIA,2
020034MPP;MUPI PILAS;1;CENTRO;CALLE;VALENCIA;15;440609.01;4473156.76;19/01/2017;-3.6999427;40.4069079;CALLE VALENCIA,15
020065MPP;MUPI PILAS;1;CENTRO;PASEO;VIRGEN DEL PUERTO;176;438859.16;4474077.79;10/10/2016;-3.7206523;40.4150782;PASEO VIRGEN DEL PUERTO,176
040962MPP;MUPI PILAS;1;CENTRO;CALLE;GÉNOVA;20;441174.32;4475316.55;10/10/2016;-3.6934806;40.4264044;CALLE GÉNOVA,20
090771MPP;MUPI PILAS;1;CENTRO;CUESTA;DE SAN VICENTE;24;439279.81;4474678.19;09/10/2020;-3.7157518;40.4205177;CUESTA DE SAN VICENTE, 24
020003MPP;MUPI PILAS;2;ARGANZUELA;CALLE;EMBAJADORES;69;440502.33;4472777.58;18/10/2016;-3.7011645;40.4034844;CALLE EMBAJADORES,69
020005MPP;MUPI PILAS;2;ARGANZUELA;CALLE;FERROCARRIL;20;440934.41;4472495.73;17/11/2016;-3.6960467;40.4009761;CALLE FERROCARRIL,20
020006MPP;MUPI PILAS;2;ARGANZUELA;PASEO;SANTA MARÍA DE LA CABEZA;53;440699.62;4472541.81;23/01/2017;-3.6988176;40.4013745;PASEO SANTA MARÍA DE LA CABEZA,53
020019MPP;MUPI PILAS;2;ARGANZUELA;GLORIETA;SANTA MARÍA DE LA CABEZA ;5;440696.50;4472462.01;26/10/2016;-3.698847;40.4006554;GLORIETA SANTA MARÍA DE LA CABEZA ,5
020020MPP;MUPI PILAS;2;ARGANZUELA;PASEO; DELICIAS;101;441058.77;4471825.03;26/01/2017;-3.6945192;40.3949429;PASEO  DELICIAS,101
020021MPP;MUPI PILAS;2;ARGANZUELA;PASEO;ESPERANZA;21;440195.04;4472524.21;19/10/2016;-3.7047617;40.4011799;PASEO ESPERANZA,21
020023MPP;MUPI PILAS;2;ARGANZUELA;PASEO;ACACIAS;12;440123.94;4472868.11;12/10/2016;-3.7056319;40.4042728;PASEO ACACIAS,12
020027MPP;MUPI PILAS;2;ARGANZUELA;PASEO;ACACIAS ;22;439833.74;4472742.81;12/10/2016;-3.7090398;40.4031231;PASEO ACACIAS ,22
020035MPP;MUPI PILAS;2;ARGANZUELA;PASEO;PONTONES  ;19;439379.56;4472990.18;13/10/2016;-3.7144153;40.4053186;PASEO PONTONES  ,19
020038MPP;MUPI PILAS;2;ARGANZUELA;PASEO;YESERÍAS ;63;440230.02;4472071.04;19/10/2016;-3.704307;40.3971;PASEO YESERÍAS ,63
020039MPP;MUPI PILAS;2;ARGANZUELA;PASEO;YESERÍAS;11;439645.80;4472377.60;10/10/2016;-3.7112198;40.3998195;PASEO YESERÍAS,11
020041MPP;MUPI PILAS;2;ARGANZUELA;PASEO;DELICIAS;19;441166.80;4473038.84;05/08/2024;-3.69332;40.40519;PASEO DELICIAS,19
020049MPP;MUPI PILAS;2;ARGANZUELA;PLAZA;LUCA DE TENA;S/N;441135.23;4472601.14;13/02/2024;-3.693690;40.401940;PLAZA LUCA DE TENA
020050MPP;MUPI PILAS;2;ARGANZUELA;PASEO;DELICIAS;69;441086.04;4472108.43;13/10/2016;-3.6942241;40.3974979;PASEO DELICIAS,69
020051MPP;MUPI PILAS;2;ARGANZUELA;PASEO;DELICIAS;7;441179.32;4473079.85;18/10/2016;-3.6932148;40.4062555;PASEO DELICIAS,7
020060MPP;MUPI PILAS;2;ARGANZUELA;PASEO;SANTA MARÍA DE LA  CABEZA;39;440824.83;4472742.02;18/10/2016;-3.6973608;40.403187;PASEO SANTA MARÍA DE LA  CABEZA,39
020062MPP;MUPI PILAS;2;ARGANZUELA;PASEO;SANTA MARÍA DE LA CABEZA;23;441010.04;4472979.26;18/10/2016;-3.6952003;40.4053374;PASEO SANTA MARÍA DE LA CABEZA,23
020069MPP;MUPI PILAS;2;ARGANZUELA;CALLE;RIBERA DE CURTIDORES;41;440015.89;4473020.91;25/10/2016;-3.7069195;40.4056415;CALLE RIBERA DE CURTIDORES,41
020071MPP;MUPI PILAS;2;ARGANZUELA;CALLE;RONDA DE ATOCHA;19;440940.01;4473133.77;13/10/2016;-3.6960399;40.4067243;CALLE RONDA DE ATOCHA,19
020072MPP;MUPI PILAS;2;ARGANZUELA;CALLE;RONDA DE ATOCHA;1;441135.10;4473199.35;05/12/2016;-3.693747;40.4073289;CALLE RONDA DE ATOCHA,1
171309MPP;MUPI PILAS;2;ARGANZUELA;CALLE;GENERAL LACY;20;441380.55;4472762.29;30/01/2017;-3.6908142;40.403409;CALLE GENERAL LACY,20
030885MPP;MUPI PILAS;3;RETIRO;AVENIDA;CIUDAD DE BARCELONA;107;443069.09;4472289.53;03/11/2016;-3.6708742;40.3992672;AVENIDA CIUDAD DE BARCELONA,107
030886MPP;MUPI PILAS;3;RETIRO;AVENIDA;CIUDAD DE  BARCELONA;85;442759.28;4472515.37;14/02/2023;-3.6745451;40.4012805;AVENIDA CIUDAD DE  BARCELONA, 85
030889MPP;MUPI PILAS;3;RETIRO;AVENIDA;CIUDAD DE BARCELONA;134;442226.17;4472834.02;30/09/2016;-3.680856;40.4041142;AVENIDA CIUDAD DE BARCELONA,134
030890MPP;MUPI PILAS;3;RETIRO;CALLE;DOCTOR ESQUERDO;184;442745.18;4472630.66;14/03/2023;-3.674684;40.401623;CALLE DOCTOR ESQUERDO, 184
030893MPP;MUPI PILAS;3;RETIRO;CALLE;NAZARET ;3;443055.89;4473651.37;19/11/2016;-3.6711516;40.4115345;CALLE NAZARET ,3
030897MPP;MUPI PILAS;3;RETIRO;AVENIDA;MENÉNDEZ PELAYO;81;442527.91;4473418.74;28/09/2016;-3.677353;40.4094026;AVENIDA MENÉNDEZ PELAYO,81
030900MPP;MUPI PILAS;3;RETIRO;AVENIDA;MENÉNDEZ PELAYO;28;442321.15;4473069.99;29/09/2016;-3.6797581;40.4062466;AVENIDA MENÉNDEZ PELAYO,28
030901MPP;MUPI PILAS;3;RETIRO;CALLE;ALFONSO XII;42;441542.18;4473869.27;28/09/2016;-3.6890112;40.4133926;CALLE ALFONSO XII,42
030903MPP;MUPI PILAS;3;RETIRO;CALLE;ALFONSO XII;18;441539.95;4474302.73;28/09/2016;-3.6890774;40.4172972;CALLE ALFONSO XII,18
030907MPP;MUPI PILAS;3;RETIRO;CALLE;ASTROS;14;443411.16;4473582.01;04/01/2017;-3.6669585;40.4109339;CALLE ASTROS,14
030915MPP;MUPI PILAS;3;RETIRO;CALLE;DOCTOR ESQUERDO ;174;442797.12;4472627.86;13/02/2023;-3.6741093;40.4022965;CALLE DOCTOR ESQUERDO , 174
030916MPP;MUPI PILAS;3;RETIRO;CALLE;DOCTOR ESQUERDO;96;443152.01;4473609.57;28/10/2016;-3.6700151;40.4111646;CALLE DOCTOR ESQUERDO,96
030922MPP;MUPI PILAS;3;RETIRO;CALLE;DOCTOR ESQUERDO;55;443247.12;4474687.80;30/05/2017;-3.6689904;40.4208843;CALLE DOCTOR ESQUERDO,55
030927MPP;MUPI PILAS;3;RETIRO;CALLE;NARVÁEZ  ;80;442607.87;4474242.92;03/10/2016;-3.6764851;40.4168328;CALLE NARVÁEZ  ,80
030928MPP;MUPI PILAS;3;RETIRO;CALLE;NARVÁEZ ;71;442622.15;4474128.03;03/10/2016;-3.6763064;40.4157988;CALLE NARVÁEZ ,71
030931MPP;MUPI PILAS;3;RETIRO;PASEO;FELIPE IV ;S/N;441183.62;4474060.59;27/01/2017;-3.6932548;40.4150908;PASEO FELIPE IV ,S/N
030934MPP;MUPI PILAS;3;RETIRO;PLAZA;INDEPENDENCIA;9;441633.96;4474593.90;23/09/2016;-3.687996;40.4199268;PLAZA INDEPENDENCIA,9
030939MPP;MUPI PILAS;3;RETIRO;PASEO;REINA CRISTINA;23;442295.73;4473200.57;11/10/2016;-3.6800695;40.4074211;PASEO REINA CRISTINA,23
030894MPP;MUPI PILAS;4;SALAMANCA;PASEO;CASTELLANA;2;441485.96;4475240.57;28/04/2017;-3.6898;40.425742;PASEO CASTELLANA,2
040946MPP;MUPI PILAS;4;SALAMANCA;AVENIDA;BRASILIA  ;2;443882.81;4475897.10;16/12/2016;-3.6616042;40.4318215;AVENIDA BRASILIA  ,2
040948MPP;MUPI PILAS;4;SALAMANCA;AVENIDA;BRASILIA;11;443919.82;4476617.31;16/12/2016;-3.6612315;40.438312;AVENIDA BRASILIA,11
040954MPP;MUPI PILAS;4;SALAMANCA;AVENIDA;BRUSELAS ;56;443766.22;4476752.58;16/12/2016;-3.6630544;40.4395202;AVENIDA BRUSELAS ,56
040955MPP;MUPI PILAS;4;SALAMANCA;AVENIDA;DE LOS TOREROS ;26;443403.06;4475940.05;14/05/2018;-3.6672638;40.4321759;AVENIDA DE LOS TOREROS ,26
040960MPP;MUPI PILAS;4;SALAMANCA;CALLE;ALCALÁ;55;441306.41;4474572.16;27/09/2016;-3.6918548;40.4197079;CALLE ALCALÁ,55
040961MPP;MUPI PILAS;4;SALAMANCA;CALLE;ALCALÁ  ;237;443751.35;4475811.76;21/12/2016;-3.6631464;40.4310438;CALLE ALCALÁ  ,237
040964MPP;MUPI PILAS;4;SALAMANCA;CALLE;GOYA;92;443046.71;4475089.22;06/06/2017;-3.6713886;40.4244868;CALLE GOYA,92
040965MPP;MUPI PILAS;4;SALAMANCA;CALLE;ALCALÁ;233;443648.95;4475708.85;22/12/2016;-3.6643445;40.4301098;CALLE ALCALÁ,233
040971MPP;MUPI PILAS;4;SALAMANCA;CALLE;ALCALÁ;120;442961.00;4475279.60;26/09/2016;-3.6724159;40.426196;CALLE ALCALÁ,120
040976MPP;MUPI PILAS;4;SALAMANCA;CALLE;ALCALÁ;152;443337.81;4475514.07;21/12/2016;-3.667995;40.428334;CALLE ALCALÁ,152
040977MPP;MUPI PILAS;4;SALAMANCA;CALLE;ALCALÁ ;239;443920.18;4475819.15;19/12/2016;-3.6611568;40.4311218;CALLE ALCALÁ ,239
040978MPP;MUPI PILAS;4;SALAMANCA;CALLE;BERLÍN;3;443762.88;4476945.83;16/12/2016;-3.6631109;40.4412609;CALLE BERLÍN,3
040983MPP;MUPI PILAS;4;SALAMANCA;CALLE;CONDE PEÑALVER;51;442720.50;4475829.53;03/11/2016;-3.6753005;40.4311335;CALLE CONDE PEÑALVER,51
040988MPP;MUPI PILAS;4;SALAMANCA;CALLE;DIEGO DE LEÓN;56;442512.87;4476215.13;24/10/2016;-3.6777831;40.4345929;CALLE DIEGO DE LEÓN,56
040989MPP;MUPI PILAS;4;SALAMANCA;CALLE;DIEGO DE LEÓN;14;441954.88;4476254.12;19/10/2016;-3.684365;40.4349054;CALLE DIEGO DE LEÓN,14
040990MPP;MUPI PILAS;4;SALAMANCA;CALLE;DIEGO DE LEÓN;23;442150.86;4476259.66;26/10/2016;-3.682055;40.4349689;CALLE DIEGO DE LEÓN,23
040992MPP;MUPI PILAS;4;SALAMANCA;CALLE;DOCTOR ESQUERDO;24;443256.22;4475097.46;26/10/2016;-3.6689197;40.4245754;CALLE DOCTOR ESQUERDO,24
040997MPP;MUPI PILAS;4;SALAMANCA;CALLE;DOCTOR ESQUERDO ;36;443244.36;4474919.60;25/10/2016;-3.6690436;40.4229723;CALLE DOCTOR ESQUERDO ,36
040998MPP;MUPI PILAS;4;SALAMANCA;CALLE;FRANCISCO SILVELA ;52;442799.90;4476254.07;27/12/2016;-3.6744027;40.4349635;CALLE FRANCISCO SILVELA ,52
040999MPP;MUPI PILAS;4;SALAMANCA;CALLE;FRANCISCO SILVELA;87;442542.00;4476505.87;21/09/2016;-3.6774659;40.437214;CALLE FRANCISCO SILVELA,87
041009MPP;MUPI PILAS;4;SALAMANCA;CALLE;FRANCISCO SILVELA  ;63;442751.23;4476238.82;21/09/2016;-3.6749751;40.4348227;CALLE FRANCISCO SILVELA  ,63
041019MPP;MUPI PILAS;4;SALAMANCA;CALLE;GOYA ;53;442179.94;4475170.39;24/10/2016;-3.6816131;40.4251583;CALLE GOYA ,53
041020MPP;MUPI PILAS;4;SALAMANCA;CALLE;GOYA;21;441794.03;4475178.52;05/10/2016;-3.6861628;40.4252046;CALLE GOYA,21
041022MPP;MUPI PILAS;4;SALAMANCA;CALLE;GOYA;85;442545.59;4475144.88;28/10/2016;-3.6773006;40.4249538;CALLE GOYA,85
041026MPP;MUPI PILAS;4;SALAMANCA;CALLE;GOYA;43;442074.47;4475178.03;24/10/2016;-3.682857;40.4252197;CALLE GOYA,43
041032MPP;MUPI PILAS;4;SALAMANCA;CALLE;GENERAL ORAÁ;16;441640.81;4476309.94;03/10/2016;-3.6880728;40.4353862;CALLE GENERAL ORAÁ,16
041038MPP;MUPI PILAS;4;SALAMANCA;CALLE;JOSÉ ORTEGA Y GASSET;28;442129.09;4475728.19;19/10/2016;-3.6822633;40.4301797;CALLE JOSÉ ORTEGA Y GASSET,28
041043MPP;MUPI PILAS;4;SALAMANCA;CALLE;JULIO CAMBA  ;3;443655.52;4475830.65;21/12/2016;-3.6642778;40.4312075;CALLE JULIO CAMBA  ,3
041045MPP;MUPI PILAS;4;SALAMANCA;CALLE;MARIA DE MOLINA;34;441983.83;4476552.93;18/10/2016;-3.684051;40.4375992;CALLE MARIA DE MOLINA,34
041051MPP;MUPI PILAS;4;SALAMANCA;CALLE;NARVÁEZ ;8;442658.96;4474962.75;27/09/2016;-3.6759478;40.4233209;CALLE NARVÁEZ ,8
041052MPP;MUPI PILAS;4;SALAMANCA;CALLE;O´DONNELL;15;442398.60;4474793.26;26/09/2016;-3.6790014;40.421776;CALLE O´DONNELL,15
041058MPP;MUPI PILAS;4;SALAMANCA;CALLE;PRÍNCIPE DE VERGARA;8;442303.92;4475004.82;20/10/2016;-3.6801366;40.4236753;CALLE PRÍNCIPE DE VERGARA,8
041063MPP;MUPI PILAS;4;SALAMANCA;CALLE;SERRANO;27;441665.62;4475372.56;06/10/2016;-3.6876943;40.4269436;CALLE SERRANO,27
041067MPP;MUPI PILAS;4;SALAMANCA;CALLE;SERRANO;73;441750.79;4476266.54;17/10/2016;-3.686734;40.434307;CALLE SERRANO,73
041068MPP;MUPI PILAS;4;SALAMANCA;CALLE;SERRANO;57;441733.59;4475885.68;18/10/2016;-3.6869401;40.4315708;CALLE SERRANO,57
041070MPP;MUPI PILAS;4;SALAMANCA;CALLE;SERRANO RAA;81;441770.72;4476402.09;17/10/2016;-3.6865497;40.4362255;CALLE SERRANO RAA,81
041075MPP;MUPI PILAS;4;SALAMANCA;CALLE;VELÁZQUEZ;44;441985.88;4475308.39;20/10/2016;-3.6839132;40.4263879;CALLE VELÁZQUEZ,44
041079MPP;MUPI PILAS;4;SALAMANCA;CALLE;VELÁZQUEZ;77;442005.15;4475886.02;18/10/2016;-3.6837388;40.4315928;CALLE VELÁZQUEZ,77
041080MPP;MUPI PILAS;4;SALAMANCA;CALLE;VELÁZQUEZ;10;441954.27;4474867.28;20/10/2016;-3.6842456;40.422412;CALLE VELÁZQUEZ,10
041084MPP;MUPI PILAS;4;SALAMANCA;CALLE;SERRANO;5;441580.69;4474766.06;06/10/2016;-3.6886397;40.421474;CALLE SERRANO,5
041085MPP;MUPI PILAS;4;SALAMANCA;CALLE;SERRANO ;13;441612.49;4475016.72;05/10/2016;-3.6882879;40.4237343;CALLE SERRANO ,13
041086MPP;MUPI PILAS;4;SALAMANCA;PASEO;RECOLETOS ;38;441444.61;4475097.18;30/09/2016;-3.6902742;40.4244473;PASEO RECOLETOS ,38
041097MPP;MUPI PILAS;4;SALAMANCA;PLAZA;DOCTOR MARAÑÓN;1;441484.58;4476582.77;15/10/2016;-3.6899398;40.437833;PLAZA DOCTOR MARAÑÓN,1
041101MPP;MUPI PILAS;4;SALAMANCA;PLAZA;MARQUÉS DE SALAMANCA;8;442367.33;4475764.03;19/10/2016;-3.679458;40.4305191;PLAZA MARQUÉS DE SALAMANCA,8
061166MPP;MUPI PILAS;4;SALAMANCA;CALLE;ALCALA;96;442600.23;4475146.90;18/05/2023;-3.676619;40.424280;CALLE ALCALA, 96
070448MPP;MUPI PILAS;4;SALAMANCA;CALLE;MARÍA DE MOLINA;36;442051.89;4476546.75;16/01/2017;-3.683248;40.4375483;CALLE MARÍA DE MOLINA,36
040959MPP;MUPI PILAS;5;CHAMARTIN;GLORIETA;REPUBLICA ARGENTINA;4;443409.90;4478164.15;26/07/2019;-3.6673813;40.4522121;GLORIETA REPUBLICA ARGENTINA,4
040979MPP;MUPI PILAS;5;CHAMARTIN;CALLE;CARTAGENA;111;442828.49;4476819.08;27/01/2017;-3.6741165;40.4400553;CALLE CARTAGENA,111
041087MPP;MUPI PILAS;5;CHAMARTIN;PASEO;CASTELLANA ;100;441403.97;4477301.46;09/11/2016;-3.6909565;40.4443016;PASEO CASTELLANA ,100
041095MPP;MUPI PILAS;5;CHAMARTIN;AVENIDA;AMÉRICA;9;442591.97;4476591.84;03/10/2016;-3.6768846;40.4379919;AVENIDA AMÉRICA,9
050227MPP;MUPI PILAS;5;CHAMARTIN;AVENIDA;ALBERTO ALCOCER ;6;441668.37;4478910.42;14/09/2016;-3.6879867;40.4588145;AVENIDA ALBERTO ALCOCER ,6
050232MPP;MUPI PILAS;5;CHAMARTIN;AVENIDA;CONCHA ESPINA;28;442129.84;4478103.58;03/04/2017;-3.6824708;40.4515784;AVENIDA CONCHA ESPINA,28
050238MPP;MUPI PILAS;5;CHAMARTIN;CALLE;FRAY BERNARDINO SAHAGUN;1;441930.43;4479335.99;08/06/2018;-3.684935;40.4626665;CALLE FRAY BERNARDINO SAHAGUN,1
050241MPP;MUPI PILAS;5;CHAMARTIN;AVENIDA;DOCTOR ARCE ;12;442154.67;4477503.98;13/12/2016;-3.6821234;40.4461786;AVENIDA DOCTOR ARCE ,12
050248MPP;MUPI PILAS;5;CHAMARTIN;CALLE ;ALFONSO XIII;41;443394.12;4478190.00;19/09/2016;-3.6675696;40.4524439;CALLE  ALFONSO XIII,41
050255MPP;MUPI PILAS;5;CHAMARTIN;CALLE;CORAZÓN DE MARÍA;57;443476.39;4477621.55;19/09/2016;-3.6665489;40.4473287;CALLE CORAZÓN DE MARÍA,57
050258MPP;MUPI PILAS;5;CHAMARTIN;CALLE;CORAZÓN  DE MARÍA ;39;443427.58;4477390.50;19/09/2016;-3.6671038;40.4452439;CALLE CORAZÓN  DE MARÍA ,39
050266MPP;MUPI PILAS;5;CHAMARTIN;CALLE;FÉLIX BOIX;212;441588.65;4479430.24;19/09/2016;-3.6889748;40.4634916;CALLE FÉLIX BOIX,212
050270MPP;MUPI PILAS;5;CHAMARTIN;CALLE;JOAQUÍN COSTA;10;441707.99;4477473.42;18/10/2016;-3.6873876;40.4458721;CALLE JOAQUÍN COSTA,10
050272MPP;MUPI PILAS;5;CHAMARTIN;CALLE;LÓPEZ DE HOYOS;90;442689.83;4477127.08;20/09/2016;-3.6757791;40.4428204;CALLE LÓPEZ DE HOYOS,90
050279MPP;MUPI PILAS;5;CHAMARTIN;CALLE;LÓPEZ DE HOYOS;158;443122.14;4477506.86;03/10/2016;-3.6707158;40.4462713;CALLE LÓPEZ DE HOYOS,158
050288MPP;MUPI PILAS;5;CHAMARTIN;CALLE;PADRE DAMIÁN;32;441853.70;4478715.33;27/01/2017;-3.6857832;40.45707;CALLE PADRE DAMIÁN,32
050292MPP;MUPI PILAS;5;CHAMARTIN;CALLE;PRÍNCIPE DE VERGARA;266;442618.90;4478775.91;22/09/2016;-3.6767644;40.4576689;CALLE PRINCIPE DE VERGARA, 266
050299MPP;MUPI PILAS;5;CHAMARTIN;CALLE;PRÍNCIPE DE VERGARA ;204;442535.03;4477884.41;21/09/2016;-3.6776728;40.4496321;CALLE PRÍNCIPE DE VERGARA ,204
050304MPP;MUPI PILAS;5;CHAMARTIN;CALLE;PRÍNCIPE DE VERGARA;135;442452.74;4477281.53;21/09/2016;-3.6785886;40.4441954;CALLE PRÍNCIPE DE VERGARA,135
050310MPP;MUPI PILAS;5;CHAMARTIN;CALLE;SERRANO;159;441993.23;4477663.51;09/11/2016;-3.6840416;40.4476045;CALLE SERRANO,159
050313MPP;MUPI PILAS;5;CHAMARTIN;CALLE;SERRANO;142;441836.66;4477031.14;17/10/2016;-3.6858299;40.4418969;CALLE SERRANO,142
050314MPP;MUPI PILAS;5;CHAMARTIN;CALLE;SERRANO;107;441797.16;4476745.16;09/11/2016;-3.6862694;40.4393179;CALLE SERRANO,107
050316MPP;MUPI PILAS;5;CHAMARTIN;CALLE;VELÁZQUEZ;135;442076.70;4476884.33;09/11/2016;-3.6829863;40.4405911;CALLE VELÁZQUEZ,135
050319MPP;MUPI PILAS;5;CHAMARTIN;GLORIETA;LÓPEZ DE HOYOS;5;442305.98;4476972.27;25/01/2022;-3.680253;40.440703;GLORIETA LÓPEZ DE HOYOS,5
050321MPP;MUPI PILAS;5;CHAMARTIN;PLAZA;VIRGEN GUADALUPANA;S/N;442810.82;4478086.60;03/01/2017;-3.6744389;40.4514725;PLAZA VIRGEN GUADALUPANA,S/N
050325MPP;MUPI PILAS;5;CHAMARTIN;PASEO;CASTELLANA;110;441424.36;4477469.94;09/11/2016;-3.6907316;40.4458208;PASEO CASTELLANA,110
050328MPP;MUPI PILAS;5;CHAMARTIN;PASEO;CASTELLANA;272;441766.03;4480590.02;19/09/2016;-3.6869891;40.4739519;PASEO CASTELLANA,272
050339MPP;MUPI PILAS;5;CHAMARTIN;PASEO;HABANA;13;441619.64;4477887.74;17/01/2017;-3.6884674;40.4495983;PASEO HABANA,13
050344MPP;MUPI PILAS;5;CHAMARTIN;CALLE;CLARA DEL REY ;35;443224.97;4477123.29;20/11/2017;-3.669469;40.4428229;CALLE CLARA DEL REY ,35
061212MPP;MUPI PILAS;5;CHAMARTIN;CALLE;VELÁZQUEZ;141;442089.34;4477036.06;08/10/2016;-3.6828511;40.4419588;CALLE VELÁZQUEZ,141
050253MPP;MUPI PILAS;6;TETUAN;CALLE;SOR ÁNGELA DE LA CRUZ;20;441123.67;4478988.42;17/07/2017;-3.6944179;40.4594787;CALLE SOR ÁNGELA DE LA CRUZ,20
050267MPP;MUPI PILAS;6;TETUAN;CALLE;SAN GERMAN;8;441310.69;4478637.46;18/01/2017;-3.6921798;40.4563303;CALLE SAN GERMAN,8
061149MPP;MUPI PILAS;6;TETUAN;AVENIDA;PABLO IGLESIAS ;80;439572.42;4478354.35;26/10/2016;-3.7126525;40.4536554;AVENIDA PABLO IGLESIAS ,80
061156MPP;MUPI PILAS;6;TETUAN;CALLE;BRAVO MURILLO;282;440828.80;4479207.87;17/10/2016;-3.697916;40.4614347;CALLE BRAVO MURILLO,282
061159MPP;MUPI PILAS;6;TETUAN;CALLE;BRAVO MURILLO;350;441166.00;4479579.73;26/07/2023;-3.6939735;40.4648085;CALLE BRAVO MURILLO, 350
061160MPP;MUPI PILAS;6;TETUAN;CALLE;BRAVO MURILLO;164;440395.19;4478266.33;06/10/2016;-3.7029416;40.4529219;CALLE BRAVO MURILLO,164
061161MPP;MUPI PILAS;6;TETUAN;CALLE;MARQUÉS DE VIANA ;3;440714.09;4479151.17;07/10/2016;-3.6992636;40.4609157;CALLE MARQUÉS DE VIANA ,3
061162MPP;MUPI PILAS;6;TETUAN;CALLE;BRAVO MURILLO ;149;440346.71;4478056.73;08/10/2016;-3.7034936;40.4510303;CALLE BRAVO MURILLO ,149
061171MPP;MUPI PILAS;6;TETUAN;CALLE;POETA JOAN MARAGAL;3;441287.31;4478334.65;28/11/2016;-3.6924276;40.4536008;CALLE POETA JOAN MARAGAL,3
061174MPP;MUPI PILAS;6;TETUAN;CALLE;FRANCOS RODRIGUEZ ;34;440236.15;4478665.14;23/01/2017;-3.7048546;40.4565031;CALLE FRANCOS RODRIGUEZ ,34
061177MPP;MUPI PILAS;6;TETUAN;CALLE;ORENSE VILLAVERDE;3;441029.68;4477602.36;14/10/2016;-3.6953977;40.4469858;CALLE ORENSE VILLAVERDE,3
061178MPP;MUPI PILAS;6;TETUAN;CALLE;INFANTA MERCEDES;30;440819.55;4478673.99;30/01/2021;-3.6979753;40.4566245;CALLE INFANTA MERCEDES, 30
061179MPP;MUPI PILAS;6;TETUAN;CALLE;ORENSE ;67;441105.04;4478795.12;28/11/2016;-3.6946197;40.4577361;CALLE ORENSE ,67
061180MPP;MUPI PILAS;6;TETUAN;CALLE;ORENSE;21;441041.62;4478018.75;28/11/2016;-3.6952956;40.4507377;CALLE ORENSE,21
061182MPP;MUPI PILAS;6;TETUAN;CALLE;RAIMUNDO FERNÁNDEZ VILLAVERDE ;69;441221.62;4477595.23;23/01/2017;-3.6931338;40.4469352;CALLE RAIMUNDO FERNÁNDEZ VILLAVERDE ,69
061183MPP;MUPI PILAS;6;TETUAN;CALLE;RAIMUNDO FERNÁNDEZ VILLAVERDE;41;440746.03;4477577.80;10/10/2016;-3.6987401;40.4467444;CALLE RAIMUNDO FERNÁNDEZ VILLAVERDE,41
061191MPP;MUPI PILAS;6;TETUAN;CALLE;SOR ÁNGELA DE LA CRUZ;9;441203.62;4478947.62;10/01/2017;-3.6934713;40.4591168;CALLE SOR ÁNGELA DE LA CRUZ,9
061213MPP;MUPI PILAS;6;TETUAN;PASEO;CASTELLANA;103;441410.12;4478409.75;14/09/2016;-3.6909862;40.454286;PASEO CASTELLANA,103
070438MPP;MUPI PILAS;6;TETUAN;GLORIETA;CUATRO CAMINOS ;2;440265.22;4477618.92;19/12/2016;-3.7044134;40.4470804;GLORIETA CUATRO CAMINOS ,2
010182MPP;MUPI PILAS;7;CHAMBERI;CALLE;ALBERTO AGUILERA;74;439251.89;4475814.84;10/10/2016;-3.7161896;40.4307551;CALLE ALBERTO AGUILERA,74
061200MPP;MUPI PILAS;7;CHAMBERI;CALLE;RÍOS ROSAS;57;441054.32;4477022.58;23/01/2017;-3.6950534;40.4417647;CALLE RÍOS ROSAS,57
070348MPP;MUPI PILAS;7;CHAMBERI;AVENIDA;FILIPINAS;6;439684.33;4476788.34;25/10/2016;-3.7111841;40.4395563;AVENIDA FILIPINAS,6
070354MPP;MUPI PILAS;7;CHAMBERI;CALLE;ALBERTO AGUILERA;62;439400.57;4475791.83;03/10/2016;-3.7144346;40.4305587;CALLE ALBERTO AGUILERA,62
070355MPP;MUPI PILAS;7;CHAMBERI;CALLE;ALBERTO AGUILERA;30;439727.31;4475747.72;03/10/2016;-3.7105786;40.430185;CALLE ALBERTO AGUILERA,30
070361MPP;MUPI PILAS;7;CHAMBERI;CALLE;ALMAGRO;11;441177.84;4475707.32;13/10/2016;-3.6934752;40.4299249;CALLE ALMAGRO,11
070365MPP;MUPI PILAS;7;CHAMBERI;CALLE;BRAVO MURILLO;12;440272.19;4476257.88;25/10/2016;-3.7042032;40.4348201;CALLE BRAVO MURILLO,12
070366MPP;MUPI PILAS;7;CHAMBERI;GLORIETA;QUEVEDO;8;440293.59;4476140.86;02/04/2018;-3.70394;40.4337675;GLORIETA QUEVEDO,8
070371MPP;MUPI PILAS;7;CHAMBERI;CALLE;CEA BERMÚDEZ;22;439938.98;4476714.12;25/10/2016;-3.7081747;40.4389061;CALLE CEA BERMÚDEZ,22
070373MPP;MUPI PILAS;7;CHAMBERI;CALLE;CEA BERMÚDEZ ;43;439510.87;4476722.56;07/11/2016;-3.7132229;40.4389511;CALLE CEA BERMÚDEZ ,43
070375MPP;MUPI PILAS;7;CHAMBERI;AVENIDA;REINA VICTORIA;57;439401.35;4477468.48;07/11/2016;-3.7145853;40.4456627;AVENIDA REINA VICTORIA,57
070376MPP;MUPI PILAS;7;CHAMBERI;CALLE;ELOY GONZALO;13;440470.61;4476197.36;25/10/2016;-3.7018583;40.4342891;CALLE ELOY GONZALO,13
070379MPP;MUPI PILAS;7;CHAMBERI;CALLE;ELOY GONZALO;27;440600.00;4476236.39;14/10/2016;-3.7003366;40.43465;CALLE ELOY GONZALO,27
070381MPP;MUPI PILAS;7;CHAMBERI;CALLE;FUENCARRAL;144;440317.68;4475966.87;26/10/2016;-3.7036396;40.4322018;CALLE FUENCARRAL,144
070382MPP;MUPI PILAS;7;CHAMBERI;CALLE;FUENCARRAL;130;440361.88;4475830.19;30/11/2016;-3.7031057;40.4309737;CALLE FUENCARRAL,130
070384MPP;MUPI PILAS;7;CHAMBERI;CALLE;GÉNOVA;25;441259.61;4475285.92;30/09/2016;-3.6924723;40.4261345;CALLE GÉNOVA,25
041093MPP;MUPI PILAS;7;CHAMBERI;CALLE;SAGASTA;25;440768.98;4475608.52;27/06/2023;-3.698247;40.428310;CALLE SAGASTA, 25
070389MPP;MUPI PILAS;7;CHAMBERI;CALLE;ISAAC PERAL;38;439126.71;4476614.11;04/10/2016;-3.7177418;40.4379461;CALLE ISAAC PERAL,38
070391MPP;MUPI PILAS;7;CHAMBERI;CALLE;JOSÉ ABASCAL;44;441097.00;4476615.45;14/10/2016;-3.6945124;40.4381001;CALLE JOSÉ ABASCAL,44
070393MPP;MUPI PILAS;7;CHAMBERI;CALLE;JOSÉ ABASCAL;6;440420.24;4476666.01;26/10/2016;-3.7024961;40.4385073;CALLE JOSÉ ABASCAL,6
070395MPP;MUPI PILAS;7;CHAMBERI;CALLE;JOSÉ ABASCAL;18;440691.39;4476647.15;11/10/2016;-3.6992975;40.4383568;CALLE JOSÉ ABASCAL,18
070400MPP;MUPI PILAS;7;CHAMBERI;CALLE;LUCHANA;28;440685.40;4475842.70;28/09/2016;-3.699293;40.4311095;CALLE LUCHANA,28
070401MPP;MUPI PILAS;7;CHAMBERI;CALLE;LUCHANA;15;440551.57;4475724.02;27/09/2016;-3.7008596;40.4300309;CALLE LUCHANA,15
070406MPP;MUPI PILAS;7;CHAMBERI;CALLE;MIGUEL ÁNGEL;14;441378.84;4476297.56;13/10/2016;-3.6911602;40.4352563;CALLE MIGUEL ÁNGEL,14
070409MPP;MUPI PILAS;7;CHAMBERI;CALLE;RAIMUNDO FDEZ VILLAVERDE;26;440616.23;4477554.25;10/11/2018;-3.7002684;40.446523;CALLE RAIMUNDO FDEZ VILLAVERDE,26
070416MPP;MUPI PILAS;7;CHAMBERI;CALLE;SAGASTA;29;440856.39;4475506.11;28/09/2016;-3.6972459;40.4280895;CALLE SAGASTA,29
070421MPP;MUPI PILAS;7;CHAMBERI;CALLE;SAN BERNARDO;105;440179.21;4475890.61;11/11/2016;-3.7052648;40.4315049;CALLE SAN BERNARDO,105
070422MPP;MUPI PILAS;7;CHAMBERI;AVENIDA;FILIPINAS;46;440083.60;4476981.29;30/01/2017;-3.7064948;40.4413233;AVENIDA FILIPINAS,46
070427MPP;MUPI PILAS;7;CHAMBERI;CALLE;SANTA ENGRACIA;154;440369.07;4477439.36;10/10/2016;-3.703172;40.4454703;CALLE SANTA ENGRACIA,154
070428MPP;MUPI PILAS;7;CHAMBERI;CALLE;MIGUEL ÁNGEL;29;441383.31;4476545.78;10/04/2017;-3.6911304;40.4374927;CALLE MIGUEL ÁNGEL,29
070429MPP;MUPI PILAS;7;CHAMBERI;CALLE;SANTA ENGRACIA;130;440490.92;4477065.55;14/10/2016;-3.7017002;40.4421116;CALLE SANTA ENGRACIA,130
070433MPP;MUPI PILAS;7;CHAMBERI;CALLE;SANTA ENGRACIA;168;440333.72;4477548.35;29/11/2016;-3.703599;40.4464496;CALLE SANTA ENGRACIA, 168
070439MPP;MUPI PILAS;7;CHAMBERI;GLORIETA;QUEVEDO;7;440266.47;4476153.19;26/10/2016;-3.7042608;40.4338766;GLORIETA QUEVEDO,7
070440MPP;MUPI PILAS;7;CHAMBERI;PASEO;CASTELLANA;41;441550.58;4476267.28;09/01/2017;-3.6891327;40.4349956;PASEO CASTELLANA,41
070442MPP;MUPI PILAS;7;CHAMBERI;CALLE;FRANCISCO DE ROJAS;8;440657.33;4475662.64;16/01/2017;-3.6996071;40.4294855;CALLE FRANCISCO DE ROJAS,8
070455MPP;MUPI PILAS;7;CHAMBERI;PASEO;EDUARDO DATO;2;440923.29;4476005.71;28/10/2016;-3.6965037;40.4325949;PASEO EDUARDO DATO,2
070456MPP;MUPI PILAS;7;CHAMBERI;PASEO;EDUARDO DATO;7;441045.48;4476039.16;14/10/2016;-3.6950663;40.4329049;PASEO EDUARDO DATO,7
070460MPP;MUPI PILAS;7;CHAMBERI;PASEO;GENERAL MARTÍNEZ CAMPOS;25;441065.29;4476288.31;24/10/2016;-3.6948559;40.4351508;PASEO GENERAL MARTÍNEZ CAMPOS,25
070464MPP;MUPI PILAS;7;CHAMBERI;PASEO;GENERAL MARTÍNEZ CAMPOS;36;441217.81;4476274.57;13/10/2016;-3.6930565;40.4350378;PASEO GENERAL MARTÍNEZ CAMPOS,36
070465MPP;MUPI PILAS;7;CHAMBERI;PASEO;SAN FRANCISCO DE SALES;14;439316.91;4476896.67;14/10/2016;-3.7155264;40.4405054;PASEO SAN FRANCISCO DE SALES,14
070466MPP;MUPI PILAS;7;CHAMBERI;PASEO;SAN FRANCISCO DE SALES;14;439291.67;4476905.84;25/10/2016;-3.7158248;40.4405862;PASEO SAN FRANCISCO DE SALES,14
070467MPP;MUPI PILAS;7;CHAMBERI;PASEO;SAN FRANCISCO DE SALES;24;439258.04;4476842.11;28/10/2016;-3.7162152;40.4400096;PASEO SAN FRANCISCO DE SALES,24
160647MPP;MUPI PILAS;7;CHAMBERI;CALLE;GUZMÁN EL BUENO;20;439498.58;4476006.35;23/01/2017;-3.7132997;40.4324983;CALLE GUZMÁN EL BUENO,20
080568MPP;MUPI PILAS;8;FUENCARRAL - EL PARDO;AVENIDA;MONFORTE DE LEMOS;172;439401.52;4480977.59;01/12/2016;-3.7149184;40.4772741;AVENIDA MONFORTE DE LEMOS,172
080574MPP;MUPI PILAS;8;FUENCARRAL - EL PARDO;AVENIDA;MONFORTE DE LEMOS;113;439968.30;4481103.36;01/12/2016;-3.7082441;40.4784482;AVENIDA MONFORTE DE LEMOS,113
080575MPP;MUPI PILAS;8;FUENCARRAL - EL PARDO;AVENIDA;CARDENAL HERRERA ORIA ;267;438668.89;4481265.12;10/01/2017;-3.7235888;40.4798105;AVENIDA CARDENAL HERRERA ORIA ,267
080576MPP;MUPI PILAS;8;FUENCARRAL - EL PARDO;AVENIDA;CARDENAL HERRERA ORIA ;2;441808.12;4482489.50;16/11/2016;-3.686667;40.4910661;AVENIDA CARDENAL HERRERA ORIA ,2
080581MPP;MUPI PILAS;8;FUENCARRAL - EL PARDO;AVENIDA;BETANZOS;16;439665.58;4480537.36;01/12/2016;-3.7117615;40.4733276;AVENIDA BETANZOS,16
080582MPP;MUPI PILAS;8;FUENCARRAL - EL PARDO;AVENIDA;BETANZOS;38;439717.74;4480769.41;01/12/2016;-3.7111682;40.4754217;AVENIDA BETANZOS,38
080583MPP;MUPI PILAS;8;FUENCARRAL - EL PARDO;AVENIDA;LA GUARDIA  ;25;434221.00;4485747.46;31/01/2017;-3.7765264;40.5198478;AVENIDA LA GUARDIA  ,25
080595MPP;MUPI PILAS;8;FUENCARRAL - EL PARDO;CALLE;SANTIAGO DE COMPOSTELA ;104;438845.17;4480864.06;09/01/2017;-3.7214706;40.4762106;CALLE SANTIAGO DE COMPOSTELA ,104
080596MPP;MUPI PILAS;8;FUENCARRAL - EL PARDO;CALLE;GINZO DE LIMIA ;2;440418.25;4480856.68;28/06/2023;-3.7029129;40.4762585;CALLE GINZO DE LIMIA , 2
080597MPP;MUPI PILAS;8;FUENCARRAL - EL PARDO;CALLE;GINZO DE LIMIA;27;440329.82;4481037.75;29/11/2016;-3.7039731;40.4778833;CALLE GINZO DE LIMIA,27
080600MPP;MUPI PILAS;8;FUENCARRAL - EL PARDO;AVENIDA;MONFORTE DE LEMOS;101;440287.23;4481180.24;09/01/2017;-3.7044889;40.4791638;AVENIDA MONFORTE DE LEMOS,101
080601MPP;MUPI PILAS;8;FUENCARRAL - EL PARDO;CALLE;MONASTERIO DE SILOS;63;441047.72;4484075.10;27/02/2017;-3.6957867;40.5052961;CALLE MONASTERIO DE SILOS,63
080604MPP;MUPI PILAS;8;FUENCARRAL - EL PARDO;CALLE;MARCOS DE ORUETA ;1;441919.04;4481766.23;23/06/2021;-3.6852919;40.4845584;CALLE MARCOS DE ORUETA , 1
080606MPP;MUPI PILAS;8;FUENCARRAL - EL PARDO;CALLE;AFUERAS DE VALVERDE;1;441822.14;4483351.72;01/08/2018;-3.6865807;40.4988343;CALLE AFUERAS DE VALVERDE,1
080615MPP;MUPI PILAS;8;FUENCARRAL - EL PARDO;CALLE;MONASTERIO DE SUSO Y YUSO;35;440905.97;4483804.16;24/01/2017;-3.6974343;40.5028453;CALLE MONASTERIO DE SUSO Y YUSO,35
150539MPP;MUPI PILAS;8;FUENCARRAL - EL PARDO;CALLE;GINZO DE LIMIA;45;440235.86;4481410.87;25/10/2023;-3.7051167;40.4812377;CALLE GINZO DE LIMIA, 45
020053MPP;MUPI PILAS;9;MONCLOA - ARAVACA;CALLE;PRINCESA ;89;438972.57;4476268.64;26/04/2017;-3.7195259;40.4348227;CALLE PRINCESA ,89
061153MPP;MUPI PILAS;9;MONCLOA - ARAVACA;AVENIDA;REINA VICTORIA;36;439743.59;4477612.44;25/10/2016;-3.7105636;40.4469844;AVENIDA REINA VICTORIA,36
090741MPP;MUPI PILAS;9;MONCLOA - ARAVACA;AVENIDA;PABLO IGLESIA ;43;439790.23;4477890.69;07/11/2016;-3.71004;40.4494944;AVENIDA PABLO IGLESIA ,43
090743MPP;MUPI PILAS;9;MONCLOA - ARAVACA;CALLE;OFELIA NIETO ;1;439677.80;4478810.77;07/11/2016;-3.7114532;40.4577747;CALLE OFELIA NIETO ,1
090745MPP;MUPI PILAS;9;MONCLOA - ARAVACA;CALLE;ANTONIO MACHADO;1;439006.29;4479333.20;22/11/2016;-3.7194227;40.4624319;CALLE ANTONIO MACHADO,1
090746MPP;MUPI PILAS;9;MONCLOA - ARAVACA;CALLE;ANTONIO MACHADO ;51;438995.73;4479931.25;07/11/2016;-3.7196048;40.4678186;CALLE ANTONIO MACHADO ,51
090749MPP;MUPI PILAS;9;MONCLOA - ARAVACA;CALLE;ARCIPRESTE DE HITA   ;10;439127.25;4476133.80;04/10/2016;-3.7176894;40.4336193;CALLE ARCIPRESTE DE HITA   ,10
090750MPP;MUPI PILAS;9;MONCLOA - ARAVACA;CALLE;BARDEGUERAL;18;434566.34;4477980.46;02/11/2016;-3.7716483;40.4499083;CALLE BARDEGUERAL,18
090752MPP;MUPI PILAS;9;MONCLOA - ARAVACA;AVENIDA;OSA MAYOR;82;433512.27;4479017.75;03/11/2016;-3.7841863;40.4591688;AVENIDA OSA MAYOR,82
090755MPP;MUPI PILAS;9;MONCLOA - ARAVACA;CALLE;FERRAZ ;20;439267.73;4475157.75;10/10/2016;-3.7159401;40.4248369;CALLE FERRAZ ,20
090759MPP;MUPI PILAS;9;MONCLOA - ARAVACA;CALLE;MARQUÉS DE URQUIJO;28;438969.67;4475698.20;12/10/2016;-3.7195053;40.4296837;CALLE MARQUÉS DE URQUIJO,28
090763MPP;MUPI PILAS;9;MONCLOA - ARAVACA;CALLE;PRINCESA;65;439175.37;4475909.13;04/10/2016;-3.7171006;40.4315989;CALLE PRINCESA,65
090765MPP;MUPI PILAS;9;MONCLOA - ARAVACA;CALLE;PRINCESA;17;439499.82;4475302.47;29/09/2016;-3.713218;40.4261575;CALLE PRINCESA,17
090767MPP;MUPI PILAS;9;MONCLOA - ARAVACA;CALLE;SAN POL DE MAR;6;438272.06;4475066.50;10/10/2016;-3.7276677;40.4239416;CALLE SAN POL DE MAR,6
090779MPP;MUPI PILAS;9;MONCLOA - ARAVACA;PASEO;JUAN XXIII ;16;439093.29;4477596.97;19/12/2016;-3.7182301;40.4467977;PASEO JUAN XXIII ,16
090781MPP;MUPI PILAS;9;MONCLOA - ARAVACA;PASEO;PINTOR ROSALES;70;438594.65;4475882.63;11/10/2016;-3.7239441;40.4313175;PASEO PINTOR ROSALES,70
090782MPP;MUPI PILAS;9;MONCLOA - ARAVACA;PASEO;PINTOR ROSALES ;46;438798.65;4475605.13;23/01/2017;-3.7215124;40.4288327;PASEO PINTOR ROSALES ,46
130876MPP;MUPI PILAS;9;MONCLOA - ARAVACA;PASEO;PINTOR ROSALES;28;438961.10;4475381.72;29/12/2016;-3.719576;40.4268321;PASEO PINTOR ROSALES,28
100690MPP;MUPI PILAS;10;LATINA;AVENIDA;AGUILAS;99;434081.21;4470421.30;06/04/2017;-3.7765855;40.3817746;AVENIDA AGUILAS,99
100692MPP;MUPI PILAS;10;LATINA;AVENIDA;PADRE PIQUER ;9;434825.12;4471812.51;22/11/2016;-3.7679646;40.3943657;AVENIDA PADRE PIQUER ,9
100696MPP;MUPI PILAS;10;LATINA;AVENIDA;RAFAEL FINAT;41;434784.91;4470296.25;19/12/2016;-3.7682832;40.3807034;AVENIDA RAFAEL FINAT,41
100700MPP;MUPI PILAS;10;LATINA;CALLE;HIGUERAS;47;436753.15;4472974.18;02/11/2016;-3.7453637;40.4049791;CALLE HIGUERAS,47
100702MPP;MUPI PILAS;10;LATINA;CALLE;BLAS CABRERA;54;434448.31;4469936.70;28/11/2016;-3.7722113;40.3774381;CALLE BLAS CABRERA,54
100704MPP;MUPI PILAS;10;LATINA;CALLE;OCAÑA;151;436132.23;4470992.47;22/11/2016;-3.7524818;40.3870797;CALLE OCAÑA,151
100705MPP;MUPI PILAS;10;LATINA;CALLE;OLIVA DE PLASENCIA;14;433896.74;4470066.36;13/12/2016;-3.7787217;40.3785625;CALLE OLIVA DE PLASENCIA,14
100708MPP;MUPI PILAS;10;LATINA;CALLE;VALMOJADO;43;435749.44;4472125.85;22/11/2016;-3.7571058;40.3972602;CALLE VALMOJADO,43
100709MPP;MUPI PILAS;10;LATINA;CALLE;VALMOJADO;275;435574.59;4471052.74;22/11/2016;-3.7590574;40.3875797;CALLE VALMOJADO,275
100710MPP;MUPI PILAS;10;LATINA;CALLE;VALMOJADO;119;435635.54;4471600.09;19/12/2016;-3.7583947;40.3925151;CALLE VALMOJADO,119
100712MPP;MUPI PILAS;10;LATINA;CALLE;VALMOJADO;231;435609.37;4471188.14;01/12/2016;-3.7586614;40.3888021;CALLE VALMOJADO,231
100719MPP;MUPI PILAS;10;LATINA;CALLE;FUENTE DEL TIRO ;72;433826.74;4470559.43;02/12/2016;-3.7795975;40.3829987;CALLE FUENTE DEL TIRO ,72
100724MPP;MUPI PILAS;10;LATINA;PASEO;EXTREMADURA;111;437641.46;4473653.20;15/12/2016;-3.7349623;40.411163;PASEO EXTREMADURA,111
100725MPP;MUPI PILAS;10;LATINA;PASEO;MARQUÉS DE MONISTROL;1;438550.85;4473992.29;28/11/2016;-3.7242777;40.4142853;PASEO MARQUÉS DE MONISTROL,1
100727MPP;MUPI PILAS;10;LATINA;PASEO;HÚSARES;46;432730.97;4470068.06;30/12/2016;-3.7924539;40.3784846;PASEO HÚSARES,46
100729MPP;MUPI PILAS;10;LATINA;PASEO;ERMITA DEL SANTO;44;438582.03;4473385.14;19/12/2016;-3.7238516;40.4088181;PASEO ERMITA DEL SANTO,44
100733MPP;MUPI PILAS;10;LATINA;CALLE;VÍA CARPETANA;322;436983.36;4471520.18;02/11/2016;-3.7425069;40.3918983;CALLE VÍA CARPETANA,322
110091MPP;MUPI PILAS;11;CARABANCHEL;CAMINO;INGENIEROS;1;436752.65;4471072.70;27/03/2017;-3.7451807;40.3878497;CAMINO INGENIEROS,1
110094MPP;MUPI PILAS;11;CARABANCHEL;AVENIDA;ABRANTES;122;437640.51;4469732.11;27/01/2017;-3.7345895;40.37584;AVENIDA ABRANTES,122
110096MPP;MUPI PILAS;11;CARABANCHEL;AVENIDA;OPORTO;11;438758.12;4470739.01;03/01/2017;-3.7215219;40.3849935;AVENIDA OPORTO,11
110102MPP;MUPI PILAS;11;CARABANCHEL;AVENIDA;OPORTO;56;438373.71;4470835.25;03/01/2017;-3.7260598;40.3858322;AVENIDA OPORTO,56
110103MPP;MUPI PILAS;11;CARABANCHEL;AVENIDA;OPORTO;2;439023.53;4470770.03;24/01/2017;-3.7183982;40.3852924;AVENIDA OPORTO,2
110104MPP;MUPI PILAS;11;CARABANCHEL;AVENIDA;OPORTO;22;438726.11;4470772.02;11/11/2016;-3.7219022;40.3852885;AVENIDA OPORTO,22
110109MPP;MUPI PILAS;11;CARABANCHEL;CALLE;ANTONIO LÓPEZ;51;439757.52;4471849.10;19/10/2016;-3.7098534;40.3950666;CALLE ANTONIO LÓPEZ,51
110110MPP;MUPI PILAS;11;CARABANCHEL;CALLE;ANTONIO LEYVA;73;439175.99;4471095.58;07/12/2016;-3.7166332;40.3882363;CALLE ANTONIO LEYVA,73
110115MPP;MUPI PILAS;11;CARABANCHEL;CALLE;OCA;88;437033.45;4471148.70;22/12/2016;-3.7418801;40.3885556;CALLE OCA,88
110116MPP;MUPI PILAS;11;CARABANCHEL;CALLE;OCA;23;437624.52;4471278.19;07/12/2016;-3.7349292;40.3897666;CALLE OCA,23
110118MPP;MUPI PILAS;11;CARABANCHEL;CALLE;OCA;65;437222.04;4471179.94;07/12/2016;-3.7396613;40.3888513;CALLE OCA,65
110120MPP;MUPI PILAS;11;CARABANCHEL;CALLE;EUGENIA DE MONTIJO;65;436476.54;4469975.05;09/11/2016;-3.7483241;40.3779406;CALLE EUGENIA DE MONTIJO,65
110121MPP;MUPI PILAS;11;CARABANCHEL;CALLE;EUGENIA DE MONTIJO;76;436575.78;4470110.33;07/12/2016;-3.7471686;40.3791668;CALLE EUGENIA DE MONTIJO,76
110126MPP;MUPI PILAS;11;CARABANCHEL;CALLE;GENERAL RICARDOS;138;438176.53;4471364.21;15/12/2016;-3.7284341;40.3905827;CALLE GENERAL RICARDOS,138
110130MPP;MUPI PILAS;11;CARABANCHEL;CALLE;GENERAL RICARDOS;183;437042.66;4470526.02;09/11/2016;-3.74171;40.382947;CALLE GENERAL RICARDOS,183
110137MPP;MUPI PILAS;11;CARABANCHEL;CALLE;GENERAL RICARDOS;44;438850.77;4471880.85;09/11/2016;-3.7205401;40.3952866;CALLE GENERAL RICARDOS,44
110139MPP;MUPI PILAS;11;CARABANCHEL;CALLE;GENERAL  RICARDOS;8;439149.28;4472094.01;09/11/2016;-3.7170433;40.3972287;CALLE GENERAL  RICARDOS,8
110141MPP;MUPI PILAS;11;CARABANCHEL;CALLE;NUESTRA SEÑORA DE LA LUZ;39;436579.18;4470657.89;02/11/2016;-3.747183;40.3840998;CALLE NUESTRA SEÑORA DE LA LUZ,39
110148MPP;MUPI PILAS;11;CARABANCHEL;GLORIETA;VALLE DEL ORO;2;437934.40;4471131.42;09/01/2017;-3.7312641;40.3884676;GLORIETA VALLE DEL ORO,2
110154MPP;MUPI PILAS;11;CARABANCHEL;PLAZA;DE LA EMPERATRIZ;9;436214.53;4469559.84;14/11/2016;-3.751327;40.373486;PLAZA DE LA EMPERATRIZ, 9
121223MPP;MUPI PILAS;12;USERA;CALLE;EDUARDO BARREIROS ;S/N;440885.06;4469129.71;22/11/2016;-3.6963159;40.3706497;CALLE EDUARDO BARREIROS ,S/N
121225MPP;MUPI PILAS;12;USERA;AVENIDA;RAFAELA YBARRA;39;439618.64;4470484.99;01/12/2016;-3.7113604;40.382768;AVENIDA RAFAELA YBARRA,39
121226MPP;MUPI PILAS;12;USERA;AVENIDA;DE LOS ROSALES;14;441123.62;4468877.51;17/11/2016;-3.6934828;40.3683946;AVENIDA DE LOS ROSALES,14
121229MPP;MUPI PILAS;12;USERA;CALLE;ANTONIO LÓPEZ;154;440486.95;4471267.35;25/10/2016;-3.7012045;40.3898784;CALLE ANTONIO LÓPEZ,154
121232MPP;MUPI PILAS;12;USERA;CALLE;GUETARIA;47;439253.81;4468970.05;28/11/2016;-3.7155138;40.3690941;CALLE GUETARIA,47
121234MPP;MUPI PILAS;12;USERA;CALLE;MANUEL NOYÁ;10;439538.36;4471133.65;02/07/2025;-3.712328;40.387911;CALLE MANUEL NOYÁ,10
121235MPP;MUPI PILAS;12;USERA;CALLE;MARCELO USERA;161;439299.92;4470747.36;11/11/2016;-3.71514;40.3851084;CALLE MARCELO USERA,161
121237MPP;MUPI PILAS;12;USERA;CALLE;MARCELO USERA;145;439556.60;4470744.49;11/11/2016;-3.7121159;40.3851012;CALLE MARCELO USERA,145
121241MPP;MUPI PILAS;12;USERA;CALLE;MARCELO USERA ;78;440091.62;4470827.90;22/11/2016;-3.7058208;40.3858913;CALLE MARCELO USERA ,78
121249MPP;MUPI PILAS;12;USERA;AVENIDA;RAFAELA YBARRA ;93;439515.16;4469403.68;03/01/2017;-3.7124768;40.3730195;AVENIDA RAFAELA YBARRA ,93
121250MPP;MUPI PILAS;12;USERA;AVENIDA;LOS POBLADOS;154;440530.44;4469160.97;17/11/2016;-3.7004956;40.3709061;AVENIDA LOS POBLADOS,154
130830MPP;MUPI PILAS;13;PUENTE DE VALLECAS;AVDA;ALBUFERA;2;443223.83;4472189.85;25/11/2016;-3.669042;40.3983798;AVDA ALBUFERA,2
130832MPP;MUPI PILAS;13;PUENTE DE VALLECAS;AVENIDA;BUENOS AIRES;65;444583.66;4470601.76;08/11/2016;-3.6528808;40.384165;AVENIDA BUENOS AIRES,65
130834MPP;MUPI PILAS;13;PUENTE DE VALLECAS;AVENIDA;ALBUFERA;270;445710.94;4470895.85;04/01/2017;-3.6396257;40.3868885;AVENIDA ALBUFERA,270
130835MPP;MUPI PILAS;13;PUENTE DE VALLECAS;AVENIDA;ALBUFERA;87;443820.54;4471763.03;08/11/2016;-3.6619732;40.3945753;AVENIDA ALBUFERA,87
130836MPP;MUPI PILAS;13;PUENTE DE VALLECAS;AVENIDA;ALBUFERA;246;445210.72;4471208.77;19/12/2016;-3.6455458;40.3896747;AVENIDA ALBUFERA,246
130848MPP;MUPI PILAS;13;PUENTE DE VALLECAS;AVENIDA;ALBUFERA;51;443573.35;4471937.40;07/11/2016;-3.6649012;40.3961294;AVENIDA ALBUFERA,51
130849MPP;MUPI PILAS;13;PUENTE DE VALLECAS;AVENIDA;ALBUFERA;153;444351.28;4471451.13;10/07/2018;-3.6556926;40.3918011;AVENIDA ALBUFERA,153
130850MPP;MUPI PILAS;13;PUENTE DE VALLECAS;AVENIDA;ALBUFERA;246;445116.77;4471263.59;24/11/2016;-3.6466574;40.3901624;AVENIDA ALBUFERA,246
130851MPP;MUPI PILAS;13;PUENTE DE VALLECAS;AVENIDA;ALBUFERA;179;444457.51;4471436.30;04/11/2016;-3.6544397;40.3916746;AVENIDA ALBUFERA,179
130854MPP;MUPI PILAS;13;PUENTE DE VALLECAS;AVENIDA;ALBUFERA;57;443611.41;4471910.79;08/11/2016;-3.6644504;40.3958922;AVENIDA ALBUFERA,57
130863MPP;MUPI PILAS;13;PUENTE DE VALLECAS;AVENIDA;PABLO NERUDA;99;443663.28;4470381.74;15/12/2016;-3.663704;40.3821212;AVENIDA PABLO NERUDA,99
130865MPP;MUPI PILAS;13;PUENTE DE VALLECAS;AVENIDA;PABLO NERUDA;96;445062.69;4470694.75;24/11/2016;-3.6472455;40.3850344;AVENIDA PABLO NERUDA,96
130866MPP;MUPI PILAS;13;PUENTE DE VALLECAS;AVENIDA;RAFAEL ALBERTI;43;445406.89;4470580.12;24/11/2016;-3.6431807;40.3840244;AVENIDA RAFAEL ALBERTI,43
130868MPP;MUPI PILAS;13;PUENTE DE VALLECAS;AVENIDA;RAFAEL ALBERTI;26;445538.33;4470805.36;24/11/2016;-3.6416515;40.3860621;AVENIDA RAFAEL ALBERTI,26
130869MPP;MUPI PILAS;13;PUENTE DE VALLECAS;CALLE;LUIS BUÑUEL;1;445275.18;4470989.20;04/01/2017;-3.6447675;40.387701;CALLE LUIS BUÑUEL,1
130871MPP;MUPI PILAS;13;PUENTE DE VALLECAS;CALLE;CARLOS SOLÉ;1;444808.15;4471793.01;28/11/2016;-3.6503394;40.3949114;CALLE CARLOS SOLÉ,1
130878MPP;MUPI PILAS;13;PUENTE DE VALLECAS;AVENIDA;BUENOS AIRES;48;444555.07;4470900.73;10/11/2016;-3.6532436;40.3868564;AVENIDA BUENOS AIRES,48
130882MPP;MUPI PILAS;13;PUENTE DE VALLECAS;CALLE;RAMÓN PÉREZ DE AYALA;148;444586.34;4472125.43;25/11/2016;-3.6529818;40.3978913;CALLE RAMÓN PÉREZ DE AYALA,148
130883MPP;MUPI PILAS;13;PUENTE DE VALLECAS;CALLE;SAN CLAUDIO;1;445464.42;4471307.14;25/11/2016;-3.6425652;40.3905776;CALLE SAN CLAUDIO,1
130884MPP;MUPI PILAS;13;PUENTE DE VALLECAS;CALLE;ARROYO DEL OLIVAR;100;444127.91;4471321.47;10/11/2016;-3.6583129;40.3906181;CALLE ARROYO DEL OLIVAR,100
140787MPP;MUPI PILAS;14;MORATALAZ;AVENIDA;MORATALAZ;164;445220.40;4473204.24;30/11/2016;-3.6456035;40.4076518;AVENIDA MORATALAZ,164
140789MPP;MUPI PILAS;14;MORATALAZ;AVENIDA;DOCTOR GARCÍA TAPIADIR VICÁLVARO;62;444518.70;4473722.02;18/11/2016;-3.653918;40.4122698;AVENIDA DOCTOR GARCÍA TAPIADIR VICÁLVARO,62
140790MPP;MUPI PILAS;14;MORATALAZ;CALLE;CORREGIDOR DIEGO DE VALDERRÁBANO ;74;444178.60;4473867.15;18/11/2016;-3.657939;40.4135545;CALLE CORREGIDOR DIEGO DE VALDERRÁBANO ,74
140799MPP;MUPI PILAS;14;MORATALAZ;CALLE;ARROYO DE LA MEDIA LEGUA;2;444149.76;4473189.20;16/02/2018;-3.6582194;40.4074452;CALLE ARROYO DE LA MEDIA LEGUA,2
140800MPP;MUPI PILAS;14;MORATALAZ;CALLE;ARROYO DE LAS PILILLAS;10;444657.19;4473166.57;30/11/2016;-3.6522375;40.4072752;CALLE ARROYO DE LAS PILILLAS,10
140806MPP;MUPI PILAS;14;MORATALAZ;CALLE;FUENTE CARRANTONA;20;446238.13;4472858.80;26/09/2016;-3.6335805;40.4046062;CALLE FUENTE CARRANTONA,20
140807MPP;MUPI PILAS;14;MORATALAZ;CALLE;FUENTE CARRANTONA;6;445883.14;4472176.88;23/09/2016;-3.6377059;40.39844;CALLE FUENTE CARRANTONA,6
140811MPP;MUPI PILAS;14;MORATALAZ;CALLE;HACIENDA DE PAVONES;1;444785.06;4472953.72;30/11/2016;-3.6507121;40.4053662;CALLE HACIENDA DE PAVONES,1
140812MPP;MUPI PILAS;14;MORATALAZ;CALLE;MANUEL MACHADO;6;444052.68;4473637.68;27/01/2017;-3.6594028;40.4114788;CALLE MANUEL MACHADO,6
140816MPP;MUPI PILAS;14;MORATALAZ;CALLE;CAMINO DE LOS VINATEROS;119;445337.76;4473094.92;02/12/2016;-3.644211;40.4066747;CALLE CAMINO DE LOS VINATEROS,119
140822MPP;MUPI PILAS;14;MORATALAZ;CALLE;CAMINO DE LOS VINATEROS;70;444643.11;4473490.28;19/11/2016;-3.6524316;40.4101904;CALLE CAMINO DE LOS VINATEROS,70
140825MPP;MUPI PILAS;14;MORATALAZ;CALLE;CAMINO DE LOS VINATEROS;3;444138.10;4473562.75;18/11/2016;-3.6583896;40.4108095;CALLE CAMINO DE LOS VINATEROS,3
140829MPP;MUPI PILAS;14;MORATALAZ;CALLE;PICO DE LOS ARTILLEROS;156;445417.12;4472639.40;30/11/2016;-3.6432367;40.4025763;CALLE PICO DE LOS ARTILLEROS,156
210084MPP;MUPI PILAS;14;MORATALAZ;CALLE;ARROYO FONTARRON;325;445751.90;4471912.03;26/04/2018;-3.6392297;40.3960456;CALLE ARROYO FONTARRON,325
150472MPP;MUPI PILAS;15;CIUDAD LINEAL;CALLE;TORRELAGUNA;61;444562.53;4477084.37;13/09/2016;-3.6536946;40.4425626;CALLE TORRELAGUNA,61
150473MPP;MUPI PILAS;15;CIUDAD LINEAL;AVENIDA;SAN LUIS;166;443075.28;4481164.10;31/08/2016;-3.6715964;40.4792142;AVENIDA SAN LUIS,166
150484MPP;MUPI PILAS;15;CIUDAD LINEAL;CALLE;ALCALÁ;414;445808.41;4476506.89;19/09/2016;-3.6389553;40.4374425;CALLE ALCALÁ,414
150485MPP;MUPI PILAS;15;CIUDAD LINEAL;CALLE;ALCALÁ;290;444743.37;4475974.38;20/05/2021;-3.6514658;40.4325752;CALLE ALCALÁ,290
150498MPP;MUPI PILAS;15;CIUDAD LINEAL;CALLE;ALCALÁ;391;445593.09;4476391.82;13/12/2016;-3.6414841;40.4363918;CALLE ALCALÁ,391
150499MPP;MUPI PILAS;15;CIUDAD LINEAL;CALLE;ALCALÁ;369;445353.27;4476244.54;06/08/2018;-3.6442989;40.4350493;CALLE ALCALÁ,369
150505MPP;MUPI PILAS;15;CIUDAD LINEAL;CALLE;ALCALÁ;318;445028.95;4476027.91;13/09/2016;-3.6481037;40.4330764;CALLE ALCALÁ,318
150507MPP;MUPI PILAS;15;CIUDAD LINEAL;CALLE;ALCALÁ;334;445197.42;4476128.08;13/09/2016;-3.6461262;40.4339899;CALLE ALCALÁ,334
150517MPP;MUPI PILAS;15;CIUDAD LINEAL;CALLE;ARTURO SORIA;169;444221.49;4478705.39;06/09/2016;-3.6578581;40.4571428;CALLE ARTURO SORIA,169
150522MPP;MUPI PILAS;15;CIUDAD LINEAL;CALLE;ARTURO SORIA;312;443340.15;4480870.04;06/09/2016;-3.6684454;40.4765833;CALLE ARTURO SORIA,312
150524MPP;MUPI PILAS;15;CIUDAD LINEAL;CALLE;ARTURO SORIA;154;444517.65;4478309.13;12/12/2016;-3.6543308;40.4535929;CALLE ARTURO SORIA,154
150526MPP;MUPI PILAS;15;CIUDAD LINEAL;CALLE;ARTURO SORIA;38;445674.87;4476984.28;12/12/2016;-3.6405706;40.4417343;CALLE ARTURO SORIA,38
150529MPP;MUPI PILAS;15;CIUDAD LINEAL;CALLE;ARTURO SORIA;121;444562.54;4478197.77;01/09/2016;-3.6537917;40.4525927;CALLE ARTURO SORIA,121
150530MPP;MUPI PILAS;15;CIUDAD LINEAL;CALLE;ARTURO SORIA;236;443602.26;4479508.83;05/09/2016;-3.6652323;40.4643387;CALLE ARTURO SORIA,236
150543MPP;MUPI PILAS;15;CIUDAD LINEAL;CALLE;ASCAO;14;445607.35;4475662.34;14/09/2016;-3.6412536;40.4298212;CALLE ASCAO,14
150553MPP;MUPI PILAS;15;CIUDAD LINEAL;CALLE;JOSÉ SILVA;19;444062.41;4478369.51;06/09/2016;-3.6597046;40.4541063;CALLE JOSÉ SILVA,19
150554MPP;MUPI PILAS;15;CIUDAD LINEAL;CALLE;MARQUÉS DE CORBERA;8;444348.69;4474864.91;16/09/2016;-3.6560216;40.4225542;CALLE MARQUÉS DE CORBERA,8
150557MPP;MUPI PILAS;15;CIUDAD LINEAL;CALLE;RICARDO ORTIZ;1;444236.86;4475751.04;14/09/2016;-3.6574175;40.4305295;CALLE RICARDO ORTIZ,1
160620MPP;MUPI PILAS;16;HORTALEZA;AVENIDA;INGENIERO EMILIO HERRERA;2;444136.30;4481983.73;12/01/2017;-3.6591515;40.4866699;AVENIDA INGENIERO EMILIO HERRERA,2
160625MPP;MUPI PILAS;16;HORTALEZA;AVENIDA;ANDES;10;447169.87;4478362.72;12/01/2017;-3.6230581;40.4542485;AVENIDA ANDES,10
160635MPP;MUPI PILAS;16;HORTALEZA;AVENIDA;MACHUPICHU;69;446371.27;4479081.33;12/01/2017;-3.6325366;40.4606709;AVENIDA MACHUPICHU,69
160638MPP;MUPI PILAS;16;HORTALEZA;AVENIDA;MANOTERAS;55;444136.68;4482025.21;17/01/2017;-3.6591507;40.4870436;AVENIDA MANOTERAS,55
160639MPP;MUPI PILAS;16;HORTALEZA;CALLE;MARIA DE PORTUGAL;15;444142.79;4483472.09;11/01/2017;-3.6592061;40.5000781;CALLE MARIA DE PORTUGAL,15
160644MPP;MUPI PILAS;16;HORTALEZA;CALLE;AYACUCHO;12;445837.77;4480072.84;22/12/2016;-3.6389134;40.4695684;CALLE AYACUCHO,12
160654MPP;MUPI PILAS;16;HORTALEZA;AVENIDA;INGENIERO EMILIO HERRERA;2;443988.60;4481818.25;13/01/2017;-3.6608795;40.4851692;AVENIDA INGENIERO EMILIO HERRERA,2
160655MPP;MUPI PILAS;16;HORTALEZA;CALLE;LÓPEZ DE HOYOS;409;444950.69;4480399.72;06/09/2016;-3.6494054;40.4724547;LOPEZ DE HOYOS, 409
160661MPP;MUPI PILAS;16;HORTALEZA;CALLE;MAR CASPIO;10;445415.55;4480491.21;18/10/2021;-3.6439297;40.4733096;CALLE MAR CASPIO, 10
160663MPP;MUPI PILAS;16;HORTALEZA;CALLE;MARÍA DE PORTUGAL;26;444093.74;4483416.71;13/12/2016;-3.6597801;40.4995759;CALLE MARÍA DE PORTUGAL,26
160668MPP;MUPI PILAS;16;HORTALEZA;CALLE;VALDETORRES DEL JARAMA;29;445485.72;4480156.25;14/08/2018;-3.6430732;40.4702967;CALLE VALDETORRES DEL JARAMA,29
160677MPP;MUPI PILAS;16;HORTALEZA;AVENIDA;GRAN VÍA DE HORTALEZA;11;444501.65;4479794.63;12/01/2017;-3.6546493;40.4669739;AVENIDA GRAN VÍA DE HORTALEZA,11
160680MPP;MUPI PILAS;16;HORTALEZA;GLORIETA;MAR DE CRISTAL;2;445853.28;4480094.99;09/01/2017;-3.6387323;40.4697689;GLORIETA MAR DE CRISTAL,2
160682MPP;MUPI PILAS;16;HORTALEZA;AVENIDA;ANDES;4;446986.93;4478260.43;12/01/2017;-3.6252069;40.4533153;AVENIDA ANDES,4
160683MPP;MUPI PILAS;16;HORTALEZA;CALLE;SILVANO;133;446609.69;4479307.95;12/12/2016;-3.6297438;40.4627278;CALLE SILVANO,133
171296MPP;MUPI PILAS;17;VILLAVERDE;AVENIDA;FELICIDAD;1;441151.23;4467852.53;20/01/2017;-3.693063;40.359163;AVENIDA FELICIDAD,1
171297MPP;MUPI PILAS;17;VILLAVERDE;AVENIDA;OROVILLA;54;441434.03;4467803.88;30/11/2016;-3.6897283;40.3587446;AVENIDA OROVILLA,54
171299MPP;MUPI PILAS;17;VILLAVERDE;CALLE;DOCTOR MARTÍN ARÉVALO;29;440021.03;4466427.86;13/12/2016;-3.7062386;40.3462482;CALLE DOCTOR MARTÍN ARÉVALO,29
171300MPP;MUPI PILAS;17;VILLAVERDE;AVENIDA;REAL DE PINTO;2;440033.29;4466784.57;30/11/2016;-3.7061277;40.3494625;AVENIDA REAL DE PINTO,2
171302MPP;MUPI PILAS;17;VILLAVERDE;CALLE;DOMINGO PÁRRAGA;42;439532.28;4465949.76;10/01/2017;-3.7119478;40.3419059;CALLE DOMINGO PÁRRAGA,42
171303MPP;MUPI PILAS;17;VILLAVERDE;CALLE;JUAN JOSÉ MARTÍNEZ SECO;75;441694.86;4467028.29;30/11/2016;-3.6865858;40.3517759;CALLE JUAN JOSÉ MARTÍNEZ SECO,75
171304MPP;MUPI PILAS;17;VILLAVERDE;CALLE;VILLALONSO;37;439494.87;4466752.15;30/11/2016;-3.7124643;40.3491316;CALLE VILLALONSO,37
171305MPP;MUPI PILAS;17;VILLAVERDE;TRAVESIA;ARECHAVALETA;6;440671.47;4466902.84;30/11/2016;-3.6986245;40.3505736;TRAVESIA ARECHAVALETA,6
171307MPP;MUPI PILAS;17;VILLAVERDE;CARRETERA;VILLAVERDE A VALLECAS;16;441379.84;4467196.24;30/11/2016;-3.6903106;40.3532668;CARRETERA VILLAVERDE A VALLECAS,16
171308MPP;MUPI PILAS;17;VILLAVERDE;PASEO;ALBERTO PALACIOS;35;439468.31;4466294.93;28/11/2016;-3.7127336;40.3450108;PASEO ALBERTO PALACIOS,35
171310MPP;MUPI PILAS;17;VILLAVERDE;PASEO;FERROVIARIOS;71;439064.76;4466109.48;28/11/2016;-3.7174672;40.3433108;PASEO FERROVIARIOS,71
181253MPP;MUPI PILAS;18;VILLA DE VALLECAS;AVENIDA;ENSANCHE DE VALLECAS;69;449204.60;4468244.94;21/11/2016;-3.5982549;40.3632275;AVENIDA ENSANCHE DE VALLECAS,69
181255MPP;MUPI PILAS;18;VILLA DE VALLECAS;AVENIDA;SANTA EUGENIA;35;447990.02;4470599.59;15/02/2018;-3.6127512;40.384365;AVENIDA SANTA EUGENIA,35
181256MPP;MUPI PILAS;18;VILLA DE VALLECAS;CALLE;PUENTELARRA;2;448602.71;4470619.93;23/11/2016;-3.6055349;40.3845863;CALLE PUENTELARRA,2
181257MPP;MUPI PILAS;18;VILLA DE VALLECAS;CALLE;VIRGEN DE LAS VIÑAS;20;448406.14;4470194.83;29/11/2016;-3.6078162;40.3807445;CALLE VIRGEN DE LAS VIÑAS,20
181261MPP;MUPI PILAS;18;VILLA DE VALLECAS;CALLE;CONGOSTO;26;447381.52;4469425.55;28/11/2016;-3.6198229;40.3737502;CALLE CONGOSTO,26
181262MPP;MUPI PILAS;18;VILLA DE VALLECAS;CALLE;JESÚS DEL PINO;32;447023.56;4470316.00;22/12/2016;-3.6241133;40.3817493;CALLE JESÚS DEL PINO,32
181264MPP;MUPI PILAS;18;VILLA DE VALLECAS;CALLE;REAL DE ARGANZA;20;447427.43;4470066.23;23/11/2016;-3.619335;40.3795248;CALLE REAL DE ARGANZA,20
181268MPP;MUPI PILAS;18;VILLA DE VALLECAS;CALLE;SIERRA GUADALUPE;15;447057.14;4470258.57;23/11/2016;-3.6237129;40.3812341;CALLE SIERRA GUADALUPE,15
181269MPP;MUPI PILAS;18;VILLA DE VALLECAS;PASEO;FEDERICO GARCÍA LORCA;5;447256.37;4470010.65;04/01/2017;-3.6213455;40.3790133;PASEO FEDERICO GARCÍA LORCA,5
181270MPP;MUPI PILAS;18;VILLA DE VALLECAS;CALLE;PUERTO DE PORZUNA;2;447315.98;4469686.13;28/11/2016;-3.6206164;40.3760936;CALLE PUERTO DE PORZUNA,2
191271MPP;MUPI PILAS;19;VICALVARO;AVENIDA;DAROCA;315;447939.21;4473101.25;23/09/2016;-3.6135544;40.4068985;AVENIDA DAROCA,315
191276MPP;MUPI PILAS;19;VICALVARO;BULEVAR;INDALECIO PRIETO;34;447169.03;4472138.59;23/09/2016;-3.6225508;40.3981777;BULEVAR INDALECIO PRIETO,34
191277MPP;MUPI PILAS;19;VICALVARO;BULEVAR;INDALECIO PRIETO;44;447125.00;4471996.02;26/09/2016;-3.6230578;40.3968905;BULEVAR INDALECIO PRIETO,44
191278MPP;MUPI PILAS;19;VICALVARO;BULEVAR;INDALECIO PRIETO;24;447262.62;4472436.15;23/09/2016;-3.6214727;40.4008642;BULEVAR INDALECIO PRIETO,24
191282MPP;MUPI PILAS;19;VICALVARO;CALLE;CASALARREINA;29;447829.18;4473203.19;21/09/2016;-3.6148594;40.4078099;CALLE CASALARREINA,29
191283MPP;MUPI PILAS;19;VICALVARO;BULEVAR;JOSE PRATS;42;447392.57;4471961.46;29/11/2016;-3.6199021;40.3965961;BULEVAR JOSE PRATS,42
191285MPP;MUPI PILAS;19;VICALVARO;CALLE;SAN CIPRIANO;46;448755.31;4472761.26;20/09/2016;-3.6039095;40.4038862;CALLE SAN CIPRIANO,46
191287MPP;MUPI PILAS;19;VICALVARO;CALLE;MINERVA;3;449277.74;4472823.25;12/01/2017;-3.597758;40.4044767;CALLE MINERVA,3
191288MPP;MUPI PILAS;19;VICALVARO;CALLE;VILLABLANCA;5;448402.61;4473339.14;23/09/2016;-3.6081126;40.4090704;CALLE VILLABLANCA,5
191291MPP;MUPI PILAS;19;VICALVARO;PASEO;ARTILLEROS;35;448333.23;4472835.97;21/09/2016;-3.6088894;40.4045332;PASEO ARTILLEROS,35
201104MPP;MUPI PILAS;20;SAN BLAS;CARRETERA;CANILLEJAS A VICÁLVARO;113;448183.99;4475574.61;15/09/2016;-3.6108712;40.4291953;CARRETERA CANILLEJAS A VICÁLVARO,113
201111MPP;MUPI PILAS;20;SAN BLAS;AVENIDA;GUADALAJARA;69;447697.01;4474661.10;15/09/2016;-3.6165369;40.4209354;AVENIDA GUADALAJARA,69
201112MPP;MUPI PILAS;20;SAN BLAS;AVENIDA;HELLÍN;21;447788.65;4475621.75;15/09/2016;-3.6155356;40.4295953;AVENIDA HELLÍN,21
201116MPP;MUPI PILAS;20;SAN BLAS;AVENIDA;INSTITUCION LIBRE DE ENSEÑANZA;45;446372.07;4475700.06;13/09/2016;-3.6322417;40.4302106;AVENIDA INSTITUCION LIBRE DE ENSEÑANZA,45
201117MPP;MUPI PILAS;20;SAN BLAS;AVENIDA;INSTITUCION LIBRE DE ENSEÑANZA;145;447106.82;4474376.87;19/12/2016;-3.6234699;40.4183376;AVENIDA INSTITUCION LIBRE DE ENSEÑANZA,145
201118MPP;MUPI PILAS;20;SAN BLAS;AVENIDA;INSTITUCION LIBRE DE ENSEÑANZA;115;446856.17;4474816.21;15/09/2016;-3.6264609;40.4222794;AVENIDA INSTITUCION LIBRE DE ENSEÑANZA,115
201125MPP;MUPI PILAS;20;SAN BLAS;CALLE;ALCALÁ;619;448216.32;4477638.44;06/09/2016;-3.6106583;40.4477896;CALLE ALCALÁ,619
201137MPP;MUPI PILAS;20;SAN BLAS;CALLE;MANCHESTER;12;448681.93;4475619.67;16/09/2016;-3.6050048;40.4296321;CALLE MANCHESTER,12
070424MPP;MUPI PILAS;21;BARAJAS;AVENIDA;PARTENON;5;447709.67;4479452.15;20/01/2017;-3.616782;40.4640968;AVENIDA PARTENON,5
210076MPP;MUPI PILAS;21;BARAJAS;AVENIDA;LOGROÑO;361;450623.21;4480701.57;26/01/2017;-3.5825148;40.4755306;AVENIDA LOGROÑO,361
210077MPP;MUPI PILAS;21;BARAJAS;AVENIDA;LOGROÑO;207;450016.86;4479206.67;26/01/2017;-3.58955;40.4620274;AVENIDA LOGROÑO,207
210086MPP;MUPI PILAS;21;BARAJAS;CALLE;OBENQUE;9;449722.52;4478121.14;25/10/2016;-3.5929356;40.4522305;CALLE OBENQUE,9
210087MPP;MUPI PILAS;21;BARAJAS;CALLE;JOAQUÍN IBARRA;35;449704.76;4478524.09;19/09/2016;-3.5931769;40.4558594;CALLE JOAQUÍN IBARRA,35
210088MPP;MUPI PILAS;21;BARAJAS;PASEO;ALAMEDA DE OSUNA;85;450047.83;4478822.09;28/09/2016;-3.5891544;40.4585647;PASEO ALAMEDA DE OSUNA,85
210089MPP;MUPI PILAS;21;BARAJAS;PLAZA;NAVÍO;4;450142.11;4478473.18;21/09/2016;-3.5880151;40.4554272;PLAZA NAVÍO,4
140793MPP;MUPI PILAS;14;MORATALAZ;AVENIDA;DOCTOR GARCÍA TAPIA;192;445804.49;4473384.71;15/12/2023;-3.6387355;40.4093158;AVENIDA DOCTOR GARCÍA TAPIA, 192
050228MPP;MUPI PILAS;5;CHAMARTIN;CALLE;ALFONSO XIII ;158;443060.70;4479043.91;20/03/2024;-3.6715781;40.4601136;CALLE ALFONSO XIII , 158
;;;;;;;;;;;;
